[{"OBJECT_NAME":"STARLINK-33549","OBJECT_ID":"2024-237Y","EPOCH":"2026-03-09T10:52:37.889184","MEAN_MOTION":15.27608759,"ECCENTRICITY":0.00023396,"INCLINATION":43.0014,"RA_OF_ASC_NODE":217.877,"ARG_OF_PERICENTER":162.9864,"MEAN_ANOMALY":197.1066,"EPHEMERIS_TYPE":0,"CLASSIFICATION_TYPE":"U","NORAD_CAT_ID":62289,"ELEMENT_SET_NO":999,"REV_AT_EPOCH":7115,"BSTAR":0.0011712367,"MEAN_MOTION_DOT":0.00032138,"MEAN_MOTION_DDOT":0},{"OBJECT_NAME":"CZ-2C DEB","OBJECT_ID":"2026-009C","EPOCH":"2026-03-09T19:20:16.840608","MEAN_MOTION":15.15876918,"ECCENTRICITY":0.01015815,"INCLINATION":97.2202,"RA_OF_ASC_NODE":140.8028,"ARG_OF_PERICENTER":36.3959,"MEAN_ANOMALY":324.4125,"EPHEMERIS_TYPE":0,"CLASSIFICATION_TYPE":"U","NORAD_CAT_ID":67586,"ELEMENT_SET_NO":999,"REV_AT_EPOCH":810,"BSTAR":0.0025681251,"MEAN_MOTION_DOT":0.0005635,"MEAN_MOTION_DDOT":0}]
